NORAD_CAT_ID,OBJECT_NAME,OBJECT_TYPE,EPOCH,MEAN_MOTION,ECCENTRICITY,INCLINATION,RA_OF_ASC_NODE,ARG_OF_PERICENTER,MEAN_ANOMALY,BSTAR,MEAN_MOTION_DOT,MEAN_MOTION_DDOT,TLE_LINE0,TLE_LINE1,TLE_LINE2,SEMIMAJOR_AXIS,PERIOD,APOGEE,PERIGEE,DECAYED
52369.0,STARLINK-3841,PAYLOAD,2022-05-27 14:09:49,15.73185644,0.0001262999999999,53.2143,299.1372,65.6261,294.4891,-2.0197e-05,-3.451e-05,0.0,0 STARLINK-3841,1 52369U 22045AQ  22147.59015677 -.00003451  00000-0 -20197-4 0  9992,2 52369  53.2143 299.1372 0001263  65.6261 294.4891 15.73185644  6913,6727.936,91.534,350.651,348.951,0.0
52369.0,STARLINK-3841,PAYLOAD,2022-05-27 22:00:01,15.73168874,0.000114,53.2129,297.5221,41.9366,8.5111,0.00060712,0.00085341,0.0,0 STARLINK-3841,1 52369U 22045AQ  22147.91668981  .00085341  00000-0  60712-3 0  9992,2 52369  53.2129 297.5221 0001140  41.9366   8.5111 15.73168874  6969,6727.984,91.535,350.616,349.082,0.0
52369.0,STARLINK-3841,PAYLOAD,2022-05-28 14:00:01,15.73204374,0.0001271,53.2176,294.2214,52.8367,175.3498,1.7466e-06,-3.75e-06,0.0,0 STARLINK-3841,1 52369U 22045AQ  22148.58334491 -.00000375  00000-0  17466-5 0  9997,2 52369  53.2176 294.2214 0001271  52.8367 175.3498 15.73204374  7063,6727.8830000000025,91.533,350.603,348.89300000000014,0.0
52369.0,STARLINK-3841,PAYLOAD,2022-05-28 19:07:55,15.73227386,0.0001284,53.2146,293.1631,84.913,275.2037,5.668600000000001e-05,7.352e-05,0.0,0 STARLINK-3841,1 52369U 22045AQ  22148.79717212  .00007352  00000-0  56686-4 0  9993,2 52369  53.2146 293.1631 0001284  84.9130 275.2037 15.73227386  7101,6727.816999999999,91.532,350.546,348.8180000000001,0.0
52369.0,STARLINK-3841,PAYLOAD,2022-05-29 04:00:00,15.73190941,0.000132,53.2137,291.3337,49.5631,244.5079,0.00014265,0.00019439,0.0,0 STARLINK-3841,1 52369U 22045AQ  22149.16667824  .00019439  00000-0  14265-3 0  9993,2 52369  53.2137 291.3337 0001320  49.5631 244.5079 15.73190941  7154,6727.920999999999,91.534,350.6740000000001,348.898,0.0
52369.0,STARLINK-3841,PAYLOAD,2022-05-29 13:25:41,15.73210698,0.0001325,53.214,289.3898,61.0715,299.0438,2.3179e-05,2.635e-05,0.0,0 STARLINK-3841,1 52369U 22045AQ  22149.55951067  .00002635  00000-0  23179-4 0  9996,2 52369  53.2140 289.3898 0001325  61.0715 299.0438 15.73210698  7228,6727.865,91.533,350.621,348.838,0.0
52369.0,STARLINK-3841,PAYLOAD,2022-05-29 20:00:01,15.731365099999998,0.0001553,53.2135,288.0366,43.5924,68.3158,-9.1081e-05,-0.00013348,0.0,0 STARLINK-3841,1 52369U 22045AQ  22149.83334491 -.00013348  00000-0 -91081-4 0  9995,2 52369  53.2135 288.0366 0001553  43.5924  68.3158 15.73136510  7268,6728.076,91.537,350.986,348.896,0.0
52369.0,STARLINK-3841,PAYLOAD,2022-05-29 21:03:07,15.73187926,0.0001959,53.2144,287.8178,62.275,297.8468,1.7629e-05,1.853e-05,0.0,0 STARLINK-3841,1 52369U 22045AQ  22149.87716523  .00001853  00000-0  17629-4 0  9991,2 52369  53.2144 287.8178 0001959  62.2750 297.8468 15.73187926  7272,6727.93,91.534,351.11300000000006,348.477,0.0
52369.0,STARLINK-3841,PAYLOAD,2022-05-30 06:00:00,15.73126062,0.000135,53.2137,285.9723,47.3373,265.6269,0.0010635,0.00150866,0.0,0 STARLINK-3841,1 52369U 22045AQ  22150.25001157  .00150866  00000-0  10635-2 0  9992,2 52369  53.2137 285.9723 0001350  47.3373 265.6269 15.73126062  7321,6728.106,91.537,350.879,349.06300000000016,0.0
52369.0,STARLINK-3841,PAYLOAD,2022-05-30 14:00:01,15.73238169,0.000155,53.2141,284.3242,43.4798,358.3706,-7.7605e-05,-0.00011515,0.0,0 STARLINK-3841,1 52369U 22045AQ  22150.58334491 -.00011515  00000-0 -77605-4 0  9999,2 52369  53.2141 284.3242 0001550  43.4798 358.3706 15.73238169  1305,6727.786,91.531,350.694,348.6090000000001,0.0
52369.0,STARLINK-3841,PAYLOAD,2022-05-30 22:00:00,15.732242,0.0001706,53.2137,282.675,41.0235,89.7956,-0.00016434,-0.00023645,0.0,0 STARLINK-3841,1 52369U 22045AQ  22150.91667824 -.00023645  00000-0 -16434-3 0  9994,2 52369  53.2137 282.6750 0001706  41.0235  89.7956 15.73224200  7431,6727.826,91.532,350.839,348.543,0.0
52369.0,STARLINK-3841,PAYLOAD,2022-05-31 06:00:02,15.73217189,0.0001509,53.2138,281.0235,47.3918,172.4396,-0.00014926,-0.0002153,0.0,0 STARLINK-3841,1 52369U 22045AQ  22151.25002315 -.00021530  00000-0 -14926-3 0  9995,2 52369  53.2138 281.0235 0001509  47.3918 172.4396 15.73217189  1307,6727.846,91.532,350.726,348.696,0.0
52369.0,STARLINK-3841,PAYLOAD,2022-05-31 22:00:00,15.73172062,0.0001823,53.2133,277.7265,40.6545,356.963,0.00014074,0.00019153,0.0,0 STARLINK-3841,1 52369U 22045AQ  22151.91667824  .00019153  00000-0  14074-3 0  9990,2 52369  53.2133 277.7265 0001823  40.6545 356.9630 15.73172062  1308,6727.975,91.535,351.066,348.61300000000006,0.0
52369.0,STARLINK-3841,PAYLOAD,2022-06-01 06:00:00,15.73164225,0.0001651,53.2136,276.0751,47.0292,79.4948,0.00063103,0.00088746,0.0,0 STARLINK-3841,1 52369U 22045AQ  22152.25001157  .00088746  00000-0  63103-3 0  9990,2 52369  53.2136 276.0751 0001651  47.0292  79.4948 15.73164225  7646,6727.996999999999,91.535,350.973,348.751,0.0
52369.0,STARLINK-3841,PAYLOAD,2022-06-01 11:33:49,15.73192442,0.0001751999999999,53.2157,274.9284,50.4892,309.6282,-1.3742e-05,-2.548e-05,0.0,0 STARLINK-3841,1 52369U 22045AQ  22152.48182150 -.00002548  00000-0 -13742-4 0  9991,2 52369  53.2157 274.9284 0001752  50.4892 309.6282 15.73192442  7688,6727.917,91.534,350.96,348.603,0.0
52369.0,STARLINK-3841,PAYLOAD,2022-06-01 20:00:01,15.73232587,0.0001858,53.2136,273.1907,35.2196,156.9471,-0.0001460999999999,-0.00021104,0.0,0 STARLINK-3841,1 52369U 22045AQ  22152.83334491 -.00021104  00000-0 -14610-3 0  9990,2 52369  53.2136 273.1907 0001858  35.2196 156.9471 15.73232587  7737,6727.802,91.531,350.917,348.417,0.0
52369.0,STARLINK-3841,PAYLOAD,2022-06-02 16:31:55,15.7322108,0.0001886,53.2136,268.9556,55.5029,304.6169,4.633300000000001e-05,5.892e-05,0.0,0 STARLINK-3841,1 52369U 22045AQ  22153.68883452  .00005892  00000-0  46333-4 0  9992,2 52369  53.2136 268.9556 0001886  55.5029 304.6169 15.73221080  7877,6727.835,91.532,350.969,348.431,0.0
52369.0,STARLINK-3841,PAYLOAD,2022-06-03 13:52:37,15.7323637,0.0001764999999999,53.2142,264.5535,31.8356,328.277,3.4754e-05,4.267e-05,0.0,0 STARLINK-3841,1 52369U 22045AQ  22154.57821194  .00004267  00000-0  34754-4 0  9995,2 52369  53.2142 264.5535 0001765  31.8356 328.2770 15.73236370  8014,6727.791,91.531,350.844,348.469,0.0
52369.0,STARLINK-3841,PAYLOAD,2022-06-03 18:27:02,15.73262609,0.000175,53.2139,263.6107,31.541,328.5714,8.222700000000001e-05,0.00010965,0.0,0 STARLINK-3841,1 52369U 22045AQ  22154.76877795  .00010965  00000-0  82227-4 0  9994,2 52369  53.2139 263.6107 0001750  31.5410 328.5714 15.73262609  8045,6727.717,91.53,350.759,348.404,0.0
52369.0,STARLINK-3841,PAYLOAD,2022-06-03 21:29:32,15.73859972,0.0001938,53.2139,262.9794,323.7005,36.3884,0.0010211,0.00149448,0.0,0 STARLINK-3841,1 52369U 22045AQ  22154.89551598  .00149448  00000-0  10211-2 0  9999,2 52369  53.2139 262.9794 0001938 323.7005  36.3884 15.73859972  8062,6726.014,91.495,349.18300000000005,346.576,0.0
52369.0,STARLINK-3841,PAYLOAD,2022-06-05 22:00:00,15.73211849,0.0002139,53.2142,252.9825,25.6926,266.1317,-0.00025217,-0.00035882,0.0,0 STARLINK-3841,1 52369U 22045AQ  22156.91667824 -.00035882  00000-0 -25217-3 0  9995,2 52369  53.2142 252.9825 0002139  25.6926 266.1317 15.73211849  8377,6727.861,91.532,351.165,348.287,0.0
52369.0,STARLINK-3841,PAYLOAD,2022-06-06 14:00:01,15.73205789,0.0002214,53.2139,249.6845,20.4648,89.226,-0.00041554,-0.00058557,0.0,0 STARLINK-3841,1 52369U 22045AQ  22157.58334491 -.00058557  00000-0 -41554-3 0  9996,2 52369  53.2139 249.6845 0002214  20.4648  89.2260 15.73205789  8485,6727.879,91.533,351.233,348.254,0.0
52369.0,STARLINK-3841,PAYLOAD,2022-06-06 22:00:00,15.73200774,0.0002127,53.2135,248.0339,18.1041,180.5062,-3.776e-05,-5.918e-05,0.0,0 STARLINK-3841,1 52369U 22045AQ  22157.91667824 -.00005918  00000-0 -37760-4 0  9990,2 52369  53.2135 248.0339 0002127  18.1041 180.5062 15.73200774  8536,6727.893,91.533,351.189,348.327,0.0
52369.0,STARLINK-3841,PAYLOAD,2022-06-07 14:00:01,15.73238091,0.0002266,53.2141,244.7357,16.4467,0.0528,-0.00049782,-0.00070031,0.0,0 STARLINK-3841,1 52369U 22045AQ  22158.58334491 -.00070031  00000-0 -49782-3 0  9999,2 52369  53.2141 244.7357 0002266  16.4467   0.0528 15.73238091  8641,6727.7869999999975,91.531,351.176,348.12699999999984,0.0
52369.0,STARLINK-3841,PAYLOAD,2022-06-07 22:00:00,15.73214161,0.0002268,53.214,243.0848,15.2835,90.1809,-0.00031473,-0.0004459,0.0,0 STARLINK-3841,1 52369U 22045AQ  22158.91667824 -.00044590  00000-0 -31473-3 0  9994,2 52369  53.2140 243.0848 0002268  15.2835  90.1809 15.73214161  8694,6727.855,91.532,351.246,348.194,0.0
52369.0,STARLINK-3841,PAYLOAD,2022-06-08 14:00:01,15.73223924,0.0002457,53.2138,239.7872,17.871,265.4154,-0.00033719,-0.00047732,0.0,0 STARLINK-3841,1 52369U 22045AQ  22159.58334491 -.00047732  00000-0 -33719-3 0  9995,2 52369  53.2138 239.7872 0002457  17.8710 265.4154 15.73223924  8798,6727.8269999999975,91.532,351.345,348.039,0.0
52369.0,STARLINK-3841,PAYLOAD,2022-06-08 22:00:01,15.73206438,0.0002327,53.2135,238.136,16.7729,355.5161,-0.00081813,-0.00113948,0.0,0 STARLINK-3841,1 52369U 22045AQ  22159.91668981 -.00113948  00000-0 -81813-3 0  9997,2 52369  53.2135 238.1360 0002327  16.7729 355.5161 15.73206438  1304,6727.877,91.533,351.307,348.176,0.0
52369.0,STARLINK-3841,PAYLOAD,2022-06-09 14:00:01,15.7313112,0.0002633,53.2142,234.8386,20.4293,169.5464,0.00043103,0.00060134,0.0,0 STARLINK-3841,1 52369U 22045AQ  22160.58334491  .00060134  00000-0  43103-3 0  9994,2 52369  53.2142 234.8386 0002633  20.4293 169.5464 15.73131120  1305,6728.092,91.537,351.728,348.185,0.0
52369.0,STARLINK-3841,PAYLOAD,2022-06-09 22:00:00,15.73190432,0.0002533,53.2141,233.1876,21.0,257.8568,7.8284e-05,0.00010375,0.0,0 STARLINK-3841,1 52369U 22045AQ  22160.91667824  .00010375  00000-0  78284-4 0  9991,2 52369  53.2141 233.1876 0002533  21.0000 257.8568 15.73190432  1309,6727.922,91.534,351.492,348.083,0.0
